{
  "type": "FeatureCollection",
  "features": [
    {
      "type": "Feature",
      "properties": {
        "class": "D",
        "id": "KDAY_D"
      },
      "geometry": {
        "type": "Polygon",
        "coordinates": [
          [
            [-84.28, 39.95],
            [-84.16, 39.95],
            [-84.14, 39.90],
            [-84.16, 39.85],
            [-84.28, 39.85],
            [-84.30, 39.90],
            [-84.28, 39.95]
          ]
        ]
      }
    },
    {
      "type": "Feature",
      "properties": {
        "class": "B",
        "id": "KCVG_B"
      },
      "geometry": {
        "type": "Polygon",
        "coordinates": [
          [
            [-84.95, 39.25],
            [-84.40, 39.25],
            [-84.35, 38.85],
            [-84.90, 38.80],
            [-85.00, 39.10],
            [-84.95, 39.25]
          ]
        ]
      }
    },
    {
      "type": "Feature",
      "properties": {
        "class": "C",
        "id": "KCLE_C"
      },
      "geometry": {
        "type": "Polygon",
        "coordinates": [
          [
            [-82.05, 41.55],
            [-81.65, 41.55],
            [-81.60, 41.25],
            [-82.00, 41.20],
            [-82.10, 41.40],
            [-82.05, 41.55]
          ]
        ]
      }
    },
    {
      "type": "Feature",
      "properties": {
        "class": "E",
        "id": "SKIP_E"
      },
      "geometry": {
        "type": "Polygon",
        "coordinates": [
          [
            [-84.0, 39.0],
            [-83.9, 39.1],
            [-83.8, 39.0],
            [-84.0, 39.0]
          ]
        ]
      }
    }
  ]
}
